ORBCOMM-X [-]           
1 21576U 91050C   23330.20193937  .00000792  00000+0  25317-3 0  9999
2 21576  98.4178  35.4843 0004872 102.6169 257.5566 14.42268065700071
ORBCOMM FM01 [-]        
1 23545U 95017A   23330.55060280  .00007809  00000+0  11049-2 0  9998
2 23545  69.9705  36.7492 0001575  99.3852 260.7475 14.77424830528198
ORBCOMM FM02 [-]        
1 23546U 95017B   23330.66998502  .00007778  00000+0  11121-2 0  9994
2 23546  69.9721  55.5883 0003796  84.4341 275.7239 14.76974903528166
ORBCOMM FM08 [-]        
1 25112U 97084A   23330.74977771  .00002773  00000+0  88737-3 0  9993
2 25112  45.0137 206.9660 0007064 264.2789  95.7256 14.41608270359405
ORBCOMM FM10 [-]        
1 25113U 97084B   23330.12445687  .00003978  00000+0  12554-2 0  9993
2 25113  45.0152 211.6906 0004457 232.4820 127.5625 14.41543233534298
ORBCOMM FM11 [+]        
1 25114U 97084C   23329.78335019  .00002786  00000+0  89469-3 0  9997
2 25114  45.0141 213.2582 0005141 230.5290 129.5105 14.41429879359217
ORBCOMM FM12 [-]        
1 25115U 97084D   23330.08656127  .00004201  00000+0  13268-2 0  9996
2 25115  45.0145 211.4633 0004255 234.4895 125.5558 14.41415679359051
ORBCOMM FM09 [-]        
1 25116U 97084E   23330.02484259  .00004158  00000+0  13143-2 0  9999
2 25116  45.0148 212.3986 0005312 215.1186 144.9315 14.41386959359256
